start=new Date('2023-02-19T00:00:00.000Z').valueOf();
sats=[{"RA_OF_ASC_NODE":"256.3078","EPHEMERIS_TYPE":"0","PERIOD":"95.591","ELEMENT_SET_NO":"999","TLE_LINE1":"1 47143U 20088X   23049.85529973  .00011399  00000-0  78265-3 0  9997","OBJECT_TYPE":"PAYLOAD","PERIAPSIS":"546.275","MEAN_MOTION":"15.06412138","MEAN_MOTION_DOT":"0.00011399","APOAPSIS":"548.077","ARG_OF_PERICENTER":"82.0506","MEAN_MOTION_DDOT":"0.0000000000000","OBJECT_NAME":"STARLINK-1856","TIME_SYSTEM":"UTC","REF_FRAME":"TEME","FILE":"3807480","RCS_SIZE":"LARGE","INCLINATION":"53.0506","OBJECT_ID":"2020-088X","NORAD_CAT_ID":"47143","TLE_LINE2":"2 47143  53.0506 256.3078 0001301  82.0506 278.0631 15.06412138124237","LAUNCH_DATE":"2020-11-25","COUNTRY_CODE":"US","SITE":"AFETR","SEMIMAJOR_AXIS":"6925.311","CLASSIFICATION_TYPE":"U","CENTER_NAME":"EARTH","REV_AT_EPOCH":"12423","MEAN_ELEMENT_THEORY":"SGP4","DECAY_DATE":null,"ECCENTRICITY":"0.00013010","EPOCH":"2023-02-18T20:31:37.896672","BSTAR":"0.00078265000000","GP_ID":"225936145","MEAN_ANOMALY":"278.0631"},{"PERIOD":"95.592","EPHEMERIS_TYPE":"0","RA_OF_ASC_NODE":"246.3674","OBJECT_TYPE":"PAYLOAD","TLE_LINE1":"1 47144U 20088Y   23049.84147737  .00004018  00000-0  28848-3 0  9993","ELEMENT_SET_NO":"999","MEAN_MOTION_DOT":"0.00004018","PERIAPSIS":"546.423","MEAN_MOTION":"15.06400457","APOAPSIS":"548.002","REF_FRAME":"TEME","TIME_SYSTEM":"UTC","MEAN_MOTION_DDOT":"0.0000000000000","OBJECT_NAME":"STARLINK-1857","ARG_OF_PERICENTER":"96.8949","FILE":"3807480","INCLINATION":"53.0537","RCS_SIZE":"LARGE","TLE_LINE2":"2 47144  53.0537 246.3674 0001140  96.8949 263.2170 15.06400457124334","NORAD_CAT_ID":"47144","LAUNCH_DATE":"2020-11-25","OBJECT_ID":"2020-088Y","SEMIMAJOR_AXIS":"6925.347","COUNTRY_CODE":"US","SITE":"AFETR","REV_AT_EPOCH":"12433","CENTER_NAME":"EARTH","CLASSIFICATION_TYPE":"U","MEAN_ELEMENT_THEORY":"SGP4","EPOCH":"2023-02-18T20:11:43.644768","ECCENTRICITY":"0.00011400","DECAY_DATE":null,"BSTAR":"0.00028848000000","GP_ID":"225936153","MEAN_ANOMALY":"263.2170"},{"FILE":"3807124","INCLINATION":"53.0534","RCS_SIZE":"LARGE","APOAPSIS":"547.831","TIME_SYSTEM":"UTC","REF_FRAME":"TEME","ARG_OF_PERICENTER":"108.0385","MEAN_MOTION_DDOT":"0.0000000000000","OBJECT_NAME":"STARLINK-1860","MEAN_MOTION_DOT":"-0.00000197","MEAN_MOTION":"15.06399707","PERIAPSIS":"546.598","PERIOD":"95.592","EPHEMERIS_TYPE":"0","RA_OF_ASC_NODE":"268.6351","OBJECT_TYPE":"PAYLOAD","ELEMENT_SET_NO":"999","TLE_LINE1":"1 47147U 20088AB  23049.33465452 -.00000197  00000-0  56561-5 0  9997","ECCENTRICITY":"0.00008900","EPOCH":"2023-02-18T08:01:54.150528","DECAY_DATE":null,"GP_ID":"225922033","MEAN_ANOMALY":"252.0700","BSTAR":"0.00000565610000","CENTER_NAME":"EARTH","REV_AT_EPOCH":"12373","CLASSIFICATION_TYPE":"U","MEAN_ELEMENT_THEORY":"SGP4","SEMIMAJOR_AXIS":"6925.349","SITE":"AFETR","COUNTRY_CODE":"US","TLE_LINE2":"2 47147  53.0534 268.6351 0000890 108.0385 252.0700 15.06399707123737","NORAD_CAT_ID":"47147","LAUNCH_DATE":"2020-11-25","OBJECT_ID":"2020-088AB"},{"PERIAPSIS":"546.401","MEAN_MOTION":"15.06393924","MEAN_MOTION_DOT":"0.00001317","EPHEMERIS_TYPE":"0","PERIOD":"95.593","RA_OF_ASC_NODE":"257.2598","TLE_LINE1":"1 47148U 20088AC  23049.64151574  .00001317  00000-0  10732-3 0  9991","ELEMENT_SET_NO":"999","OBJECT_TYPE":"PAYLOAD","FILE":"3807597","INCLINATION":"53.0529","RCS_SIZE":"LARGE","APOAPSIS":"548.063","TIME_SYSTEM":"UTC","REF_FRAME":"TEME","ARG_OF_PERICENTER":"90.9187","MEAN_MOTION_DDOT":"0.0000000000000","OBJECT_NAME":"STARLINK-1861","SEMIMAJOR_AXIS":"6925.367","COUNTRY_CODE":"US","SITE":"AFETR","LAUNCH_DATE":"2020-11-25","TLE_LINE2":"2 47148  53.0529 257.2598 0001200  90.9187 269.1940 15.06393924124162","NORAD_CAT_ID":"47148","OBJECT_ID":"2020-088AC","DECAY_DATE":null,"ECCENTRICITY":"0.00012000","EPOCH":"2023-02-18T15:23:46.959936","MEAN_ANOMALY":"269.1940","GP_ID":"225938636","BSTAR":"0.00010732000000","CLASSIFICATION_TYPE":"U","CENTER_NAME":"EARTH","REV_AT_EPOCH":"12416","MEAN_ELEMENT_THEORY":"SGP4"},{"TLE_LINE2":"2 47149  53.0536 267.4358 0001352  99.5097 260.6045 15.06395344124509","NORAD_CAT_ID":"47149","LAUNCH_DATE":"2020-11-25","OBJECT_ID":"2020-088AD","SEMIMAJOR_AXIS":"6925.363","COUNTRY_CODE":"US","SITE":"AFETR","REV_AT_EPOCH":"12450","CENTER_NAME":"EARTH","CLASSIFICATION_TYPE":"U","MEAN_ELEMENT_THEORY":"SGP4","EPOCH":"2023-02-18T14:29:23.220672","ECCENTRICITY":"0.00013520","DECAY_DATE":null,"GP_ID":"225921043","MEAN_ANOMALY":"260.6045","BSTAR":"0.00020065000000","PERIOD":"95.592","EPHEMERIS_TYPE":"0","RA_OF_ASC_NODE":"267.4358","OBJECT_TYPE":"PAYLOAD","TLE_LINE1":"1 47149U 20088AD  23049.60374098  .00002708  00000-0  20065-3 0  9991","ELEMENT_SET_NO":"999","MEAN_MOTION_DOT":"0.00002708","PERIAPSIS":"546.292","MEAN_MOTION":"15.06395344","APOAPSIS":"548.164","TIME_SYSTEM":"UTC","REF_FRAME":"TEME","MEAN_MOTION_DDOT":"0.0000000000000","OBJECT_NAME":"STARLINK-1862","ARG_OF_PERICENTER":"99.5097","FILE":"3807124","INCLINATION":"53.0536","RCS_SIZE":"LARGE"},{"BSTAR":"0.00017863000000","GP_ID":"225920803","MEAN_ANOMALY":"264.4305","DECAY_DATE":null,"EPOCH":"2023-02-18T14:20:06.357984","ECCENTRICITY":"0.00009980","MEAN_ELEMENT_THEORY":"SGP4","CLASSIFICATION_TYPE":"U","CENTER_NAME":"EARTH","REV_AT_EPOCH":"12391","SITE":"AFETR","COUNTRY_CODE":"US","SEMIMAJOR_AXIS":"6925.382","OBJECT_ID":"2020-088AE","TLE_LINE2":"2 47150  53.0529 257.4616 0000998  95.6798 264.4305 15.06389100123917","LAUNCH_DATE":"2020-11-25","NORAD_CAT_ID":"47150","RCS_SIZE":"LARGE","INCLINATION":"53.0529","FILE":"3807124","MEAN_MOTION_DDOT":"0.0000000000000","ARG_OF_PERICENTER":"95.6798","OBJECT_NAME":"STARLINK-1863","TIME_SYSTEM":"UTC","REF_FRAME":"TEME","APOAPSIS":"547.938","MEAN_MOTION":"15.06389100","PERIAPSIS":"546.556","MEAN_MOTION_DOT":"0.00002380","TLE_LINE1":"1 47150U 20088AE  23049.59729581  .00002380  00000-0  17863-3 0  9990","ELEMENT_SET_NO":"999","OBJECT_TYPE":"PAYLOAD","RA_OF_ASC_NODE":"257.4616","EPHEMERIS_TYPE":"0","PERIOD":"95.593"},{"COUNTRY_CODE":"US","SITE":"AFETR","SEMIMAJOR_AXIS":"6925.377","OBJECT_ID":"2020-088AF","TLE_LINE2":"2 47151  53.0522 267.4704 0001184  88.8081 271.3044 15.06390585123766","NORAD_CAT_ID":"47151","LAUNCH_DATE":"2020-11-25","MEAN_ANOMALY":"271.3044","GP_ID":"225921539","BSTAR":"0.00016651000000","ECCENTRICITY":"0.00011840","EPOCH":"2023-02-18T14:18:45.870336","DECAY_DATE":null,"MEAN_ELEMENT_THEORY":"SGP4","REV_AT_EPOCH":"12376","CENTER_NAME":"EARTH","CLASSIFICATION_TYPE":"U","MEAN_MOTION_DOT":"0.00002199","PERIAPSIS":"546.422","MEAN_MOTION":"15.06390585","OBJECT_TYPE":"PAYLOAD","TLE_LINE1":"1 47151U 20088AF  23049.59636424  .00002199  00000-0  16651-3 0  9996","ELEMENT_SET_NO":"999","RA_OF_ASC_NODE":"267.4704","PERIOD":"95.593","EPHEMERIS_TYPE":"0","RCS_SIZE":"LARGE","INCLINATION":"53.0522","FILE":"3807124","ARG_OF_PERICENTER":"88.8081","MEAN_MOTION_DDOT":"0.0000000000000","OBJECT_NAME":"STARLINK-1864","REF_FRAME":"TEME","TIME_SYSTEM":"UTC","APOAPSIS":"548.062"},{"ELEMENT_SET_NO":"999","TLE_LINE1":"1 47152U 20088AG  23049.71338414 -.00000948  00000-0 -44776-4 0  9991","OBJECT_TYPE":"PAYLOAD","RA_OF_ASC_NODE":"266.9323","EPHEMERIS_TYPE":"0","PERIOD":"95.594","PERIAPSIS":"546.418","MEAN_MOTION":"15.06378148","MEAN_MOTION_DOT":"-0.00000948","MEAN_MOTION_DDOT":"0.0000000000000","ARG_OF_PERICENTER":"96.1467","OBJECT_NAME":"STARLINK-1866","REF_FRAME":"TEME","TIME_SYSTEM":"UTC","APOAPSIS":"548.143","RCS_SIZE":"LARGE","INCLINATION":"53.0534","FILE":"3807620","OBJECT_ID":"2020-088AG","TLE_LINE2":"2 47152  53.0534 266.9323 0001246  96.1467 263.9664 15.06378148124037","NORAD_CAT_ID":"47152","LAUNCH_DATE":"2020-11-25","COUNTRY_CODE":"US","SITE":"AFETR","SEMIMAJOR_AXIS":"6925.416","MEAN_ELEMENT_THEORY":"SGP4","CLASSIFICATION_TYPE":"U","CENTER_NAME":"EARTH","REV_AT_EPOCH":"12403","GP_ID":"225939290","BSTAR":"-0.00004477600000","MEAN_ANOMALY":"263.9664","DECAY_DATE":null,"EPOCH":"2023-02-18T17:07:16.389696","ECCENTRICITY":"0.00012460"},{"SEMIMAJOR_AXIS":"6925.354","COUNTRY_CODE":"US","SITE":"AFETR","TLE_LINE2":"2 47153  53.0521 272.7884 0001033  99.9912 260.1193 15.06398119123698","NORAD_CAT_ID":"47153","LAUNCH_DATE":"2020-11-25","OBJECT_ID":"2020-088AH","DECAY_DATE":null,"EPOCH":"2023-02-18T13:54:15.827904","ECCENTRICITY":"0.00010330","BSTAR":"0.00054879000000","GP_ID":"225920551","MEAN_ANOMALY":"260.1193","CLASSIFICATION_TYPE":"U","REV_AT_EPOCH":"12369","CENTER_NAME":"EARTH","MEAN_ELEMENT_THEORY":"SGP4","PERIAPSIS":"546.504","MEAN_MOTION":"15.06398119","MEAN_MOTION_DOT":"0.00007902","EPHEMERIS_TYPE":"0","PERIOD":"95.592","RA_OF_ASC_NODE":"272.7884","ELEMENT_SET_NO":"999","TLE_LINE1":"1 47153U 20088AH  23049.57934986  .00007902  00000-0  54879-3 0  9991","OBJECT_TYPE":"PAYLOAD","FILE":"3807124","INCLINATION":"53.0521","RCS_SIZE":"LARGE","APOAPSIS":"547.935","TIME_SYSTEM":"UTC","REF_FRAME":"TEME","MEAN_MOTION_DDOT":"0.0000000000000","OBJECT_NAME":"STARLINK-1867","ARG_OF_PERICENTER":"99.9912"},{"SEMIMAJOR_AXIS":"6925.340","SITE":"AFETR","COUNTRY_CODE":"US","TLE_LINE2":"2 47154  53.0543 256.7642 0001214  96.8671 263.2456 15.06402819124180","LAUNCH_DATE":"2020-11-25","NORAD_CAT_ID":"47154","OBJECT_ID":"2020-088AJ","DECAY_DATE":null,"EPOCH":"2023-02-18T18:03:01.171296","ECCENTRICITY":"0.00012140","BSTAR":"0.00052817000000","GP_ID":"225938874","MEAN_ANOMALY":"263.2456","CLASSIFICATION_TYPE":"U","CENTER_NAME":"EARTH","REV_AT_EPOCH":"12418","MEAN_ELEMENT_THEORY":"SGP4","PERIAPSIS":"546.364","MEAN_MOTION":"15.06402819","MEAN_MOTION_DOT":"0.00007595","EPHEMERIS_TYPE":"0","PERIOD":"95.592","RA_OF_ASC_NODE":"256.7642","TLE_LINE1":"1 47154U 20088AJ  23049.75209689  .00007595  00000-0  52817-3 0  9995","ELEMENT_SET_NO":"999","OBJECT_TYPE":"PAYLOAD","FILE":"3807614","INCLINATION":"53.0543","RCS_SIZE":"LARGE","APOAPSIS":"548.046","REF_FRAME":"TEME","TIME_SYSTEM":"UTC","MEAN_MOTION_DDOT":"0.0000000000000","OBJECT_NAME":"STARLINK-1868","ARG_OF_PERICENTER":"96.8671"}];
